ATLAS CENTAUR R/B       
1 06155U 72065B   26037.27414771  .00001874  00000+0  25897-3 0  9991
2 06155  35.0009 129.8446 0033096 105.9504 254.4847 14.77594325836610
SL-8 R/B                
1 08459U 75112B   26037.54899486  .00000261  00000+0  94589-4 0  9990
2 08459  74.0593  76.2013 0015523 180.1307 179.9846 14.38188176627399
SL-3 R/B                
1 10114U 77057B   26037.76086380  .00015337  00000+0  33121-3 0  9990
2 10114  97.5733 208.3508 0008134  41.3360 318.8502 15.44592808663550
SEASAT 1                
1 10967U 78064A   26037.85255634  .00000455  00000+0  16553-3 0  9990
2 10967 108.0164  60.7835 0001552 291.5888  68.5092 14.46134983502053
SL-14 R/B               
1 11267U 79011B   26037.72787539  .00000894  00000+0  85744-4 0  9993
2 11267  82.5257 125.9480 0016651 156.2429 203.9563 14.91869666524167
SL-8 R/B                
1 11574U 79089B   26037.74166157  .00000417  00000+0  13416-3 0  9995
2 11574  74.0697 148.3292 0016486 324.9426  35.0643 14.42331084431646
SL-14 R/B               
1 11672U 80005B   26037.85479440  .00000997  00000+0  98481-4 0  9997
2 11672  82.5173 336.4760 0014116 266.3776  93.5829 14.90888867471898
SL-8 R/B                
1 12139U 81003B   26037.86244816  .00022299  00000+0  59155-3 0  9996
2 12139  82.9395 318.5034 0263599 286.3332  70.9061 15.09850285310021
SL-3 R/B                
1 12465U 81046B   26037.82224104  .00015023  00000+0  35920-3 0  9990
2 12465  81.2345 326.7768 0020608 123.1173 237.2051 15.41126467433676
SL-3 R/B                
1 12904U 81103B   26037.79042250  .00007175  00000+0  32167-3 0  9997
2 12904  81.1562 249.6757 0013831  33.0254 327.1838 15.21001819968535
SL-3 R/B                
1 13068U 82013B   26037.81179384  .00005715  00000+0  25009-3 0  9997
2 13068  81.1742 196.9465 0021783 284.6435  75.2381 15.21670704399657
SL-3 R/B                
1 13154U 82039B   26037.84319044  .00003040  00000+0  18419-3 0  9999
2 13154  81.1615 251.5160 0030064  65.3762 295.0589 15.09909882376982
