CCSDS_OMM_VERS = 2.0
CREATION_DATE  = 
ORIGINATOR     = 

OBJECT_NAME    = ATLAS CENTAUR R/B
OBJECT_ID      = 1972-065B
CENTER_NAME    = EARTH
REF_FRAME      = TEME
TIME_SYSTEM    = UTC
MEAN_ELEMENT_THEORY = SGP/SGP4

EPOCH          = 2026-02-06T06:34:46.362144
MEAN_MOTION    = 14.77594325
ECCENTRICITY   = .0033096
INCLINATION    = 35.0009
RA_OF_ASC_NODE = 129.8446
ARG_OF_PERICENTER = 105.9504
MEAN_ANOMALY   = 254.4847

EPHEMERIS_TYPE = 0
CLASSIFICATION_TYPE = U
NORAD_CAT_ID   = 6155
ELEMENT_SET_NO = 999
REV_AT_EPOCH   = 83661
BSTAR          = .25897E-3
MEAN_MOTION_DOT = .1874E-4
MEAN_MOTION_DDOT = 0

CCSDS_OMM_VERS = 2.0
CREATION_DATE  = 
ORIGINATOR     = 

OBJECT_NAME    = SL-8 R/B
OBJECT_ID      = 1975-112B
CENTER_NAME    = EARTH
REF_FRAME      = TEME
TIME_SYSTEM    = UTC
MEAN_ELEMENT_THEORY = SGP/SGP4

EPOCH          = 2026-02-06T13:10:33.155904
MEAN_MOTION    = 14.38188176
ECCENTRICITY   = .0015523
INCLINATION    = 74.0593
RA_OF_ASC_NODE = 76.2013
ARG_OF_PERICENTER = 180.1307
MEAN_ANOMALY   = 179.9846

EPHEMERIS_TYPE = 0
CLASSIFICATION_TYPE = U
NORAD_CAT_ID   = 8459
ELEMENT_SET_NO = 999
REV_AT_EPOCH   = 62739
BSTAR          = .94589E-4
MEAN_MOTION_DOT = .261E-5
MEAN_MOTION_DDOT = 0

CCSDS_OMM_VERS = 2.0
CREATION_DATE  = 
ORIGINATOR     = 

OBJECT_NAME    = SL-3 R/B
OBJECT_ID      = 1977-057B
CENTER_NAME    = EARTH
REF_FRAME      = TEME
TIME_SYSTEM    = UTC
MEAN_ELEMENT_THEORY = SGP/SGP4

EPOCH          = 2026-02-06T18:15:38.632320
MEAN_MOTION    = 15.44592808
ECCENTRICITY   = .0008134
INCLINATION    = 97.5733
RA_OF_ASC_NODE = 208.3508
ARG_OF_PERICENTER = 41.3360
MEAN_ANOMALY   = 318.8502

EPHEMERIS_TYPE = 0
CLASSIFICATION_TYPE = U
NORAD_CAT_ID   = 10114
ELEMENT_SET_NO = 999
REV_AT_EPOCH   = 66355
BSTAR          = .33121E-3
MEAN_MOTION_DOT = .15337E-3
MEAN_MOTION_DDOT = 0

CCSDS_OMM_VERS = 2.0
CREATION_DATE  = 
ORIGINATOR     = 

OBJECT_NAME    = SEASAT 1
OBJECT_ID      = 1978-064A
CENTER_NAME    = EARTH
REF_FRAME      = TEME
TIME_SYSTEM    = UTC
MEAN_ELEMENT_THEORY = SGP/SGP4

EPOCH          = 2026-02-06T20:27:40.867776
MEAN_MOTION    = 14.46134983
ECCENTRICITY   = .0001552
INCLINATION    = 108.0164
RA_OF_ASC_NODE = 60.7835
ARG_OF_PERICENTER = 291.5888
MEAN_ANOMALY   = 68.5092

EPHEMERIS_TYPE = 0
CLASSIFICATION_TYPE = U
NORAD_CAT_ID   = 10967
ELEMENT_SET_NO = 999
REV_AT_EPOCH   = 50205
BSTAR          = .16553E-3
MEAN_MOTION_DOT = .455E-5
MEAN_MOTION_DDOT = 0

CCSDS_OMM_VERS = 2.0
CREATION_DATE  = 
ORIGINATOR     = 

OBJECT_NAME    = SL-14 R/B
OBJECT_ID      = 1979-011B
CENTER_NAME    = EARTH
REF_FRAME      = TEME
TIME_SYSTEM    = UTC
MEAN_ELEMENT_THEORY = SGP/SGP4

EPOCH          = 2026-02-06T17:28:08.433696
MEAN_MOTION    = 14.91869666
ECCENTRICITY   = .0016651
INCLINATION    = 82.5257
RA_OF_ASC_NODE = 125.9480
ARG_OF_PERICENTER = 156.2429
MEAN_ANOMALY   = 203.9563

EPHEMERIS_TYPE = 0
CLASSIFICATION_TYPE = U
NORAD_CAT_ID   = 11267
ELEMENT_SET_NO = 999
REV_AT_EPOCH   = 52416
BSTAR          = .85744E-4
MEAN_MOTION_DOT = .894E-5
MEAN_MOTION_DDOT = 0

CCSDS_OMM_VERS = 2.0
CREATION_DATE  = 
ORIGINATOR     = 

OBJECT_NAME    = SL-8 R/B
OBJECT_ID      = 1979-089B
CENTER_NAME    = EARTH
REF_FRAME      = TEME
TIME_SYSTEM    = UTC
MEAN_ELEMENT_THEORY = SGP/SGP4

EPOCH          = 2026-02-06T17:47:59.559648
MEAN_MOTION    = 14.42331084
ECCENTRICITY   = .0016486
INCLINATION    = 74.0697
RA_OF_ASC_NODE = 148.3292
ARG_OF_PERICENTER = 324.9426
MEAN_ANOMALY   = 35.0643

EPHEMERIS_TYPE = 0
CLASSIFICATION_TYPE = U
NORAD_CAT_ID   = 11574
ELEMENT_SET_NO = 999
REV_AT_EPOCH   = 43164
BSTAR          = .13416E-3
MEAN_MOTION_DOT = .417E-5
MEAN_MOTION_DDOT = 0

CCSDS_OMM_VERS = 2.0
CREATION_DATE  = 
ORIGINATOR     = 

OBJECT_NAME    = SL-14 R/B
OBJECT_ID      = 1980-005B
CENTER_NAME    = EARTH
REF_FRAME      = TEME
TIME_SYSTEM    = UTC
MEAN_ELEMENT_THEORY = SGP/SGP4

EPOCH          = 2026-02-06T20:30:54.236160
MEAN_MOTION    = 14.90888867
ECCENTRICITY   = .0014116
INCLINATION    = 82.5173
RA_OF_ASC_NODE = 336.4760
ARG_OF_PERICENTER = 266.3776
MEAN_ANOMALY   = 93.5829

EPHEMERIS_TYPE = 0
CLASSIFICATION_TYPE = U
NORAD_CAT_ID   = 11672
ELEMENT_SET_NO = 999
REV_AT_EPOCH   = 47189
BSTAR          = .98481E-4
MEAN_MOTION_DOT = .997E-5
MEAN_MOTION_DDOT = 0

CCSDS_OMM_VERS = 2.0
CREATION_DATE  = 
ORIGINATOR     = 

OBJECT_NAME    = SL-8 R/B
OBJECT_ID      = 1981-003B
CENTER_NAME    = EARTH
REF_FRAME      = TEME
TIME_SYSTEM    = UTC
MEAN_ELEMENT_THEORY = SGP/SGP4

EPOCH          = 2026-02-06T20:41:55.521024
MEAN_MOTION    = 15.09850285
ECCENTRICITY   = .0263599
INCLINATION    = 82.9395
RA_OF_ASC_NODE = 318.5034
ARG_OF_PERICENTER = 286.3332
MEAN_ANOMALY   = 70.9061

EPHEMERIS_TYPE = 0
CLASSIFICATION_TYPE = U
NORAD_CAT_ID   = 12139
ELEMENT_SET_NO = 999
REV_AT_EPOCH   = 31002
BSTAR          = .59155E-3
MEAN_MOTION_DOT = .22299E-3
MEAN_MOTION_DDOT = 0

CCSDS_OMM_VERS = 2.0
CREATION_DATE  = 
ORIGINATOR     = 

OBJECT_NAME    = SL-3 R/B
OBJECT_ID      = 1981-046B
CENTER_NAME    = EARTH
REF_FRAME      = TEME
TIME_SYSTEM    = UTC
MEAN_ELEMENT_THEORY = SGP/SGP4

EPOCH          = 2026-02-06T19:44:01.625856
MEAN_MOTION    = 15.41126467
ECCENTRICITY   = .0020608
INCLINATION    = 81.2345
RA_OF_ASC_NODE = 326.7768
ARG_OF_PERICENTER = 123.1173
MEAN_ANOMALY   = 237.2051

EPHEMERIS_TYPE = 0
CLASSIFICATION_TYPE = U
NORAD_CAT_ID   = 12465
ELEMENT_SET_NO = 999
REV_AT_EPOCH   = 43367
BSTAR          = .3592E-3
MEAN_MOTION_DOT = .15023E-3
MEAN_MOTION_DDOT = 0

CCSDS_OMM_VERS = 2.0
CREATION_DATE  = 
ORIGINATOR     = 

OBJECT_NAME    = SL-3 R/B
OBJECT_ID      = 1981-103B
CENTER_NAME    = EARTH
REF_FRAME      = TEME
TIME_SYSTEM    = UTC
MEAN_ELEMENT_THEORY = SGP/SGP4

EPOCH          = 2026-02-06T18:58:12.504000
MEAN_MOTION    = 15.21001819
ECCENTRICITY   = .0013831
INCLINATION    = 81.1562
RA_OF_ASC_NODE = 249.6757
ARG_OF_PERICENTER = 33.0254
MEAN_ANOMALY   = 327.1838

EPHEMERIS_TYPE = 0
CLASSIFICATION_TYPE = U
NORAD_CAT_ID   = 12904
ELEMENT_SET_NO = 999
REV_AT_EPOCH   = 96853
BSTAR          = .32167E-3
MEAN_MOTION_DOT = .7175E-4
MEAN_MOTION_DDOT = 0

CCSDS_OMM_VERS = 2.0
CREATION_DATE  = 
ORIGINATOR     = 

OBJECT_NAME    = SL-3 R/B
OBJECT_ID      = 1982-013B
CENTER_NAME    = EARTH
REF_FRAME      = TEME
TIME_SYSTEM    = UTC
MEAN_ELEMENT_THEORY = SGP/SGP4

EPOCH          = 2026-02-06T19:28:58.987776
MEAN_MOTION    = 15.21670704
ECCENTRICITY   = .0021783
INCLINATION    = 81.1742
RA_OF_ASC_NODE = 196.9465
ARG_OF_PERICENTER = 284.6435
MEAN_ANOMALY   = 75.2381

EPHEMERIS_TYPE = 0
CLASSIFICATION_TYPE = U
NORAD_CAT_ID   = 13068
ELEMENT_SET_NO = 999
REV_AT_EPOCH   = 39965
BSTAR          = .25009E-3
MEAN_MOTION_DOT = .5715E-4
MEAN_MOTION_DDOT = 0

CCSDS_OMM_VERS = 2.0
CREATION_DATE  = 
ORIGINATOR     = 

OBJECT_NAME    = SL-3 R/B
OBJECT_ID      = 1982-039B
CENTER_NAME    = EARTH
REF_FRAME      = TEME
TIME_SYSTEM    = UTC
MEAN_ELEMENT_THEORY = SGP/SGP4

EPOCH          = 2026-02-06T20:14:11.654016
MEAN_MOTION    = 15.09909882
ECCENTRICITY   = .0030064
INCLINATION    = 81.1615
RA_OF_ASC_NODE = 251.5160
ARG_OF_PERICENTER = 65.3762
MEAN_ANOMALY   = 295.0589

EPHEMERIS_TYPE = 0
CLASSIFICATION_TYPE = U
NORAD_CAT_ID   = 13154
ELEMENT_SET_NO = 999
REV_AT_EPOCH   = 37698
BSTAR          = .18419E-3
MEAN_MOTION_DOT = .304E-4
MEAN_MOTION_DDOT = 0

